{
  "links" : {
    "next" : "https://api.nasa.gov/neo/rest/v1/feed?start_date=2002-05-23&end_date=2002-05-23&detailed=true&api_key=t0TVs3DtDT2H8Oy2Zy8m2eVrNsAVKAexjcZXUckd",
    "prev" : "https://api.nasa.gov/neo/rest/v1/feed?start_date=2002-05-21&end_date=2002-05-21&detailed=true&api_key=t0TVs3DtDT2H8Oy2Zy8m2eVrNsAVKAexjcZXUckd",
    "self" : "https://api.nasa.gov/neo/rest/v1/feed?start_date=2002-05-22&end_date=2002-05-22&detailed=true&api_key=t0TVs3DtDT2H8Oy2Zy8m2eVrNsAVKAexjcZXUckd"
  },
  "element_count" : 4,
  "near_earth_objects" : {
    "2002-05-22" : [ {
      "links" : {
        "self" : "https://api.nasa.gov/neo/rest/v1/neo/3120890?api_key=t0TVs3DtDT2H8Oy2Zy8m2eVrNsAVKAexjcZXUckd"
      },
      "neo_reference_id" : "3120890",
      "name" : "(2002 GK8)",
      "nasa_jpl_url" : "http://ssd.jpl.nasa.gov/sbdb.cgi?sstr=3120890",
      "absolute_magnitude_h" : 19.6,
      "estimated_diameter" : {
        "kilometers" : {
          "estimated_diameter_min" : 0.3195618867,
          "estimated_diameter_max" : 0.7145621017
        },
        "meters" : {
          "estimated_diameter_min" : 319.5618867213,
          "estimated_diameter_max" : 714.5621017269
        },
        "miles" : {
          "estimated_diameter_min" : 0.1985664891,
          "estimated_diameter_max" : 0.4440081677
        },
        "feet" : {
          "estimated_diameter_min" : 1048.4314204307,
          "estimated_diameter_max" : 2344.3639258298
        }
      },
      "is_potentially_hazardous_asteroid" : false,
      "close_approach_data" : [ {
        "close_approach_date" : "2002-05-22",
        "epoch_date_close_approach" : 1022050800000,
        "relative_velocity" : {
          "kilometers_per_second" : "19.0643145765",
          "kilometers_per_hour" : "68631.5324754068",
          "miles_per_hour" : "42644.9652761771"
        },
        "miss_distance" : {
          "astronomical" : "0.4772977813",
          "lunar" : "185.668838501",
          "kilometers" : "71402736",
          "miles" : "44367600"
        },
        "orbiting_body" : "Earth"
      } ],
      "orbital_data" : {
        "orbit_id" : "35",
        "orbit_determination_date" : "2017-05-03 06:18:20",
        "orbit_uncertainty" : "0",
        "minimum_orbit_intersection" : ".406718",
        "jupiter_tisserand_invariant" : "3.673",
        "epoch_osculation" : "2457800.5",
        "eccentricity" : ".4012957792921322",
        "semi_major_axis" : "1.841464897268924",
        "inclination" : "38.9971698204352",
        "ascending_node_longitude" : "47.82086755153809",
        "orbital_period" : "912.7326657090537",
        "perihelion_distance" : "1.102492806280285",
        "perihelion_argument" : "266.7702286041829",
        "aphelion_distance" : "2.580436988257564",
        "perihelion_time" : "2457989.087724045779",
        "mean_anomaly" : "285.6172336028545",
        "mean_motion" : ".3944199802691789",
        "equinox" : "J2000"
      }
    }, {
      "links" : {
        "self" : "https://api.nasa.gov/neo/rest/v1/neo/3746620?api_key=t0TVs3DtDT2H8Oy2Zy8m2eVrNsAVKAexjcZXUckd"
      },
      "neo_reference_id" : "3746620",
      "name" : "(2016 ED156)",
      "nasa_jpl_url" : "http://ssd.jpl.nasa.gov/sbdb.cgi?sstr=3746620",
      "absolute_magnitude_h" : 23.4,
      "estimated_diameter" : {
        "kilometers" : {
          "estimated_diameter_min" : 0.0555334912,
          "estimated_diameter_max" : 0.1241766613
        },
        "meters" : {
          "estimated_diameter_min" : 55.5334911581,
          "estimated_diameter_max" : 124.1766612574
        },
        "miles" : {
          "estimated_diameter_min" : 0.0345069009,
          "estimated_diameter_max" : 0.0771597762
        },
        "feet" : {
          "estimated_diameter_min" : 182.1964991311,
          "estimated_diameter_max" : 407.4037573197
        }
      },
      "is_potentially_hazardous_asteroid" : false,
      "close_approach_data" : [ {
        "close_approach_date" : "2002-05-22",
        "epoch_date_close_approach" : 1022050800000,
        "relative_velocity" : {
          "kilometers_per_second" : "26.3552733867",
          "kilometers_per_hour" : "94878.9841922791",
          "miles_per_hour" : "58954.1110388081"
        },
        "miss_distance" : {
          "astronomical" : "0.4490920733",
          "lunar" : "174.6968078613",
          "kilometers" : "67183216",
          "miles" : "41745716"
        },
        "orbiting_body" : "Earth"
      } ],
      "orbital_data" : {
        "orbit_id" : "9",
        "orbit_determination_date" : "2017-04-06 08:27:31",
        "orbit_uncertainty" : "5",
        "minimum_orbit_intersection" : ".017615",
        "jupiter_tisserand_invariant" : "6.590",
        "epoch_osculation" : "2458000.5",
        "eccentricity" : ".4422519371428242",
        "semi_major_axis" : ".8887392850540092",
        "inclination" : "7.214887259852437",
        "ascending_node_longitude" : "327.2977008533709",
        "orbital_period" : "306.0271751954759",
        "perihelion_distance" : ".495692614623945",
        "perihelion_argument" : "59.77017206924729",
        "aphelion_distance" : "1.281785955484073",
        "perihelion_time" : "2457983.336247438638",
        "mean_anomaly" : "20.19085696603143",
        "mean_motion" : "1.176366117715032",
        "equinox" : "J2000"
      }
    }, {
      "links" : {
        "self" : "https://api.nasa.gov/neo/rest/v1/neo/3455099?api_key=t0TVs3DtDT2H8Oy2Zy8m2eVrNsAVKAexjcZXUckd"
      },
      "neo_reference_id" : "3455099",
      "name" : "(2009 FE19)",
      "nasa_jpl_url" : "http://ssd.jpl.nasa.gov/sbdb.cgi?sstr=3455099",
      "absolute_magnitude_h" : 26.9,
      "estimated_diameter" : {
        "kilometers" : {
          "estimated_diameter_min" : 0.0110803882,
          "estimated_diameter_max" : 0.0247765013
        },
        "meters" : {
          "estimated_diameter_min" : 11.0803882126,
          "estimated_diameter_max" : 24.7765012606
        },
        "miles" : {
          "estimated_diameter_min" : 0.0068850319,
          "estimated_diameter_max" : 0.0153953994
        },
        "feet" : {
          "estimated_diameter_min" : 36.3529808636,
          "estimated_diameter_max" : 81.2877363957
        }
      },
      "is_potentially_hazardous_asteroid" : false,
      "close_approach_data" : [ {
        "close_approach_date" : "2002-05-22",
        "epoch_date_close_approach" : 1022050800000,
        "relative_velocity" : {
          "kilometers_per_second" : "9.0046870663",
          "kilometers_per_hour" : "32416.8734387398",
          "miles_per_hour" : "20142.5844986436"
        },
        "miss_distance" : {
          "astronomical" : "0.2872623881",
          "lunar" : "111.7450637817",
          "kilometers" : "42973840",
          "miles" : "26702706"
        },
        "orbiting_body" : "Earth"
      } ],
      "orbital_data" : {
        "orbit_id" : "6",
        "orbit_determination_date" : "2017-04-06 09:00:55",
        "orbit_uncertainty" : "7",
        "minimum_orbit_intersection" : ".0381734",
        "jupiter_tisserand_invariant" : "5.116",
        "epoch_osculation" : "2458000.5",
        "eccentricity" : ".1952532888530773",
        "semi_major_axis" : "1.245097628918477",
        "inclination" : "12.38971287848155",
        "ascending_node_longitude" : "1.399832021916633",
        "orbital_period" : "507.4620107793669",
        "perihelion_distance" : "1.001988221928976",
        "perihelion_argument" : "218.2768869724801",
        "aphelion_distance" : "1.488207035907978",
        "perihelion_time" : "2457994.095829110900",
        "mean_anomaly" : "4.543200222092032",
        "mean_motion" : ".7094127094304207",
        "equinox" : "J2000"
      }
    }, {
      "links" : {
        "self" : "https://api.nasa.gov/neo/rest/v1/neo/2488580?api_key=t0TVs3DtDT2H8Oy2Zy8m2eVrNsAVKAexjcZXUckd"
      },
      "neo_reference_id" : "2488580",
      "name" : "488580 (2002 GK8)",
      "nasa_jpl_url" : "http://ssd.jpl.nasa.gov/sbdb.cgi?sstr=2488580",
      "absolute_magnitude_h" : 19.6,
      "estimated_diameter" : {
        "kilometers" : {
          "estimated_diameter_min" : 0.3195618867,
          "estimated_diameter_max" : 0.7145621017
        },
        "meters" : {
          "estimated_diameter_min" : 319.5618867213,
          "estimated_diameter_max" : 714.5621017269
        },
        "miles" : {
          "estimated_diameter_min" : 0.1985664891,
          "estimated_diameter_max" : 0.4440081677
        },
        "feet" : {
          "estimated_diameter_min" : 1048.4314204307,
          "estimated_diameter_max" : 2344.3639258298
        }
      },
      "is_potentially_hazardous_asteroid" : false,
      "close_approach_data" : [ {
        "close_approach_date" : "2002-05-22",
        "epoch_date_close_approach" : 1022050800000,
        "relative_velocity" : {
          "kilometers_per_second" : "19.0643146114",
          "kilometers_per_hour" : "68631.5326009464",
          "miles_per_hour" : "42644.9653541825"
        },
        "miss_distance" : {
          "astronomical" : "0.4772977815",
          "lunar" : "185.668838501",
          "kilometers" : "71402736",
          "miles" : "44367600"
        },
        "orbiting_body" : "Earth"
      } ],
      "orbital_data" : {
        "orbit_id" : "36",
        "orbit_determination_date" : "2017-05-15 19:01:32",
        "orbit_uncertainty" : "0",
        "minimum_orbit_intersection" : ".407205",
        "jupiter_tisserand_invariant" : "3.673",
        "epoch_osculation" : "2458000.5",
        "eccentricity" : ".4012636659770433",
        "semi_major_axis" : "1.841313730287187",
        "inclination" : "38.99895641793801",
        "ascending_node_longitude" : "47.81972372115175",
        "orbital_period" : "912.6202778399499",
        "perihelion_distance" : "1.102461432658285",
        "perihelion_argument" : "266.7821251782493",
        "aphelion_distance" : "2.580166027916088",
        "perihelion_time" : "2457989.101591941197",
        "mean_anomaly" : "4.496313527989394",
        "mean_motion" : ".3944685525200819",
        "equinox" : "J2000"
      }
    } ]
  }
}